OBJECT_NAME,OBJECT_ID,EPOCH,MEAN_MOTION,ECCENTRICITY,INCLINATION,RA_OF_ASC_NODE,ARG_OF_PERICENTER,MEAN_ANOMALY,EPHEMERIS_TYPE,CLASSIFICATION_TYPE,NORAD_CAT_ID,ELEMENT_SET_NO,REV_AT_EPOCH,BSTAR,MEAN_MOTION_DOT,MEAN_MOTION_DDOT
INTELSAT 21 (IS-21),2012-045A,2026-06-19T19:22:38.680032,1.00272561,.0001425,0.0182,14.8448,84.6372,41.2043,0,U,38749,999,5055,0,-.29E-5,0
INTELSAT 23 (IS-23),2012-057A,2026-06-19T05:29:59.907840,1.00267375,.00001343,0.0099,325.5761,86.5042,244.8525,0,U,38867,999,4997,0,-.291E-5,0
FM-6,2013-058A,2026-06-19T17:27:23.916096,1.00270821,.000171,0.0356,52.4724,122.4129,238.6158,0,U,39360,999,4609,0,0,0
INTELSAT 30 (IS-30),2014-062A,2026-06-19T05:50:50.775072,1.00270952,.00012405,0.0281,53.7801,330.6226,235.7245,0,U,40271,999,681,0,-.157E-5,0
DIRECTV 14,2014-078B,2026-06-19T15:49:34.928256,1.00270473,.0000313,0.0096,21.7348,296.0721,88.2306,0,U,40333,999,4206,0,-.131E-5,0
DIRECTV 15,2015-026A,2026-06-19T15:48:35.022816,1.00272172,.00003,0.0148,55.2937,316.2829,30.5620,0,U,40663,999,4048,0,-.108E-5,0
SKY MEXICO-1,2015-026B,2026-06-19T19:20:36.595104,1.00272275,.0002119,0.0172,57.8441,47.1967,14.3338,0,U,40664,999,4048,0,-.24E-5,0
INTELSAT 34 (IS-34),2015-039A,2026-06-19T19:14:38.479200,1.00270827,.00005,0.0089,12.0194,334.3252,154.8400,0,U,40874,999,3966,0,-.291E-5,0
INTELSAT 31 (IS-31),2016-035A,2026-06-19T02:09:30.712320,1.00264216,.00011277,0.0171,269.3791,318.6423,336.6183,0,U,41581,999,3670,0,-.156E-5,0
INTELSAT 36 (IS-36),2016-053A,2026-06-18T23:56:21.800256,1.00271257,.00021211,0.0124,11.1204,322.4188,1.2761,0,U,41747,999,3597,0,-.31E-6,0
INTELSAT 32E (IS-32E),2017-007B,2026-06-19T04:06:58.326624,1.00270576,.00006553,0.0180,10.1464,310.2644,325.5432,0,U,41945,999,3424,0,-.275E-5,0
INTELSAT 35E (IS-35E),2017-041A,2026-06-19T04:09:28.088064,1.00270762,.00020387,0.0194,13.3558,75.0828,206.8380,0,U,42818,999,3283,0,0,0
INTELSAT 37E (IS-37E),2017-059A,2026-06-19T20:36:38.515968,1.00271087,.0002578,0.0183,15.8076,96.8898,86.5479,0,U,42950,999,3209,0,-.146E-5,0
AZERSPACE 2 (IS-38),2018-074A,2026-06-18T21:41:31.668000,1.00273868,.0001499,0.0173,14.6973,84.9449,177.9809,0,U,43632,999,2846,0,.13E-5,0
HORIZONS-3E,2018-074B,2026-06-19T17:06:03.462048,1.00272022,.0000639,0.0197,132.1360,148.8720,52.4420,0,U,43633,999,2836,0,-.36E-6,0
AT&T T-16,2019-034A,2026-06-19T15:49:04.975104,1.00271427,.000079,0.0205,64.4367,246.1589,93.6973,0,U,44333,999,2565,0,-.121E-5,0
INTELSAT 39 (IS-39),2019-049B,2026-06-19T20:26:28.156128,1.00270992,.0000933,0.0075,4.6950,326.1975,305.7397,0,U,44476,999,2515,0,.28E-6,0
GALAXY 30 (G-30),2020-056C,2026-06-19T17:24:54.157248,1.00272867,.0002253,0.0178,13.9580,74.1097,316.0992,0,U,46114,999,2131,0,.31E-6,0
GALAXY 33 (G-33),2022-128A,2026-06-19T13:00:02.408256,1.00270256,.00017031,0.0196,49.2747,35.1210,245.3737,0,U,54026,999,1376,0,.73E-6,0
GALAXY 34 (G-34),2022-128B,2026-06-19T17:23:46.764384,1.00275881,.0001675,0.0118,50.0538,48.8611,300.9719,0,U,54027,999,1393,0,.53E-6,0
GALAXY 31 (G-31),2022-153A,2026-06-19T15:43:20.525088,1.00271913,.0001142,0.0226,84.3496,355.7948,302.5529,0,U,54243,999,715,0,.7E-7,0
GALAXY 32 (G-32),2022-153B,2026-06-19T19:17:06.929088,1.00271611,.0002078,0.0145,32.1698,4.4975,69.6346,0,U,54244,999,1317,0,-.18E-5,0
GALAXY 35 (G-35),2022-170A,2026-06-19T12:26:02.287392,1.00271924,.00018476,0.0133,66.3445,18.4425,276.3511,0,U,54741,999,1291,0,-.168E-5,0
GALAXY 36 (G-36),2022-170B,2026-06-19T12:27:09.679392,1.00272164,.00025384,0.0040,322.4331,121.0454,282.0519,0,U,54742,999,1279,0,-.191E-5,0
GALAXY 37 (G-37),2023-112A,2026-06-19T12:27:39.191040,1.00271199,.00019805,0.0013,351.1399,95.5303,240.9805,0,U,57493,999,1056,0,.42E-6,0
